[Satellite]
VERSION=1.1
NAME=XIWANG-1 (HOPE-1)
NICKNAME=XIWANG-1 (HOPE-1)
TLE1=1 36122U 09072B   22342.39469309 -.00000018  00000+0  65728-4 0  9999
TLE2=2 36122 100.2101 307.5440 0007008 304.5750  55.4701 13.16375027623696
STATUS=0
